ONEWEB-0461             
1 51649U 22012AD  25171.46916501 -.00000260  00000+0 -70288-3 0  9997
2 51649  87.9065  77.8614 0001939  75.3410 284.7936 13.17648300166259
ONEWEB-0463             
1 51650U 22012AE  25171.45060600  .00000080  00000+0  17329-3 0  9993
2 51650  87.9071  77.9282 0001876  77.5504 282.5837 13.17651669166032
ONEWEB-0464             
1 51651U 22012AF  25171.55650278 -.00000425  00000+0 -12531-2 0  9995
2 51651  87.8835 108.4007 0002142  87.5759 272.5614 13.10376240161966
ONEWEB-0468             
1 51652U 22012AG  25171.56315818 -.00000030  00000+0 -12244-3 0  9999
2 51652  87.8835 108.3910 0002034  80.3242 279.8115 13.10376852161940
ONEWEB-0473             
1 51653U 22012AH  25170.86098740 -.00000714  00000+0 -20824-2 0  9995
2 51653  87.8833 108.5342 0001934  81.2859 278.8487 13.10374841161859
ONEWEB-0474             
1 51654U 22012AJ  25171.53990681 -.00000558  00000+0 -16337-2 0  9996
2 51654  87.8821 108.3627 0001970  86.2342 273.9010 13.10371706163221
ONEWEB-0475             
1 51655U 22012AK  25170.77899760 -.00000005  00000+0 -46001-4 0  9998
2 51655  87.9068  78.0418 0001468 100.8557 259.2739 13.17648043165966
ONEWEB-0490             
1 54113U 22138A   25171.26101002  .00000020  00000+0  16517-4 0  9993
2 54113  87.9212  16.9001 0001948  92.4537 267.6818 13.19724196129096
